[{"OBJECT_NAME":"STARLINK-35099","OBJECT_ID":"2025-216B","EPOCH":"2026-03-09T22:15:29.545920","MEAN_MOTION":15.30214046,"ECCENTRICITY":0.00013853,"INCLINATION":53.1618,"RA_OF_ASC_NODE":331.5277,"ARG_OF_PERICENTER":134.6272,"MEAN_ANOMALY":225.4842,"EPHEMERIS_TYPE":0,"CLASSIFICATION_TYPE":"U","NORAD_CAT_ID":65735,"ELEMENT_SET_NO":999,"REV_AT_EPOCH":2655,"BSTAR":0.00098140469,"MEAN_MOTION_DOT":0.00028833,"MEAN_MOTION_DDOT":0},{"OBJECT_NAME":"OBJECT D","OBJECT_ID":"2021-102D","EPOCH":"2026-03-09T14:47:14.426880","MEAN_MOTION":15.2846442,"ECCENTRICITY":0.0009157,"INCLINATION":97.3342,"RA_OF_ASC_NODE":112.2633,"ARG_OF_PERICENTER":187.6206,"MEAN_ANOMALY":172.4897,"EPHEMERIS_TYPE":0,"CLASSIFICATION_TYPE":"U","NORAD_CAT_ID":49398,"ELEMENT_SET_NO":999,"REV_AT_EPOCH":23880,"BSTAR":0.00046011,"MEAN_MOTION_DOT":0.00012697,"MEAN_MOTION_DDOT":0}]
